NORAD_CAT_ID,OBJECT_NAME,OBJECT_TYPE,EPOCH,MEAN_MOTION,ECCENTRICITY,INCLINATION,RA_OF_ASC_NODE,ARG_OF_PERICENTER,MEAN_ANOMALY,BSTAR,MEAN_MOTION_DOT,MEAN_MOTION_DDOT,TLE_LINE0,TLE_LINE1,TLE_LINE2,SEMIMAJOR_AXIS,PERIOD,APOGEE,PERIGEE,DECAYED
51962.0,STARLINK-3697,PAYLOAD,2022-04-06 20:00:01,15.73243196,0.0001553,53.2164,359.8652,142.8195,349.8455,-0.00059065,-0.00082857,0.0,0 STARLINK-3697,1 51962U 22025G   22096.83334491 -.00082857  00000-0 -59065-3 0  9998,2 51962  53.2164 359.8652 0001553 142.8195 349.8455 15.73243196  5732,6727.772,91.531,350.682,348.592,0.0
51962.0,STARLINK-3697,PAYLOAD,2022-04-06 22:00:00,15.73217423,0.0001493,53.2163,359.4535,140.0743,104.8359,-0.00035776,-0.00050567,0.0,0 STARLINK-3697,1 51962U 22025G   22096.91667824 -.00050567  00000-0 -35776-3 0  9992,2 51962  53.2163 359.4535 0001493 140.0743 104.8359 15.73217423  3700,6727.846,91.532,350.715,348.706,0.0
51962.0,STARLINK-3697,PAYLOAD,2022-04-07 04:00:00,15.73162516,0.0001372,53.2164,358.2174,135.4279,86.1836,0.00064577,0.00090848,0.0,0 STARLINK-3697,1 51962U 22025G   22097.16667824  .00090848  00000-0  64577-3 0  9995,2 51962  53.2164 358.2174 0001372 135.4279  86.1836 15.73162516  5790,6728.002,91.535,350.79,348.944,0.0
51962.0,STARLINK-3697,PAYLOAD,2022-04-07 14:00:01,15.7317984,0.0001571999999999,53.2161,356.1531,144.8733,277.9142,8.266700000000001e-05,0.00010987,0.0,0 STARLINK-3697,1 51962U 22025G   22097.58334491  .00010987  00000-0  82667-4 0  9999,2 51962  53.2161 356.1531 0001572 144.8733 277.9142 15.73179840  3709,6727.953,91.534,350.875,348.76,0.0
51962.0,STARLINK-3697,PAYLOAD,2022-04-07 20:00:01,15.73186009,0.0001516,53.2162,354.9169,144.3917,255.0752,0.00032988,0.00045902,0.0,0 STARLINK-3697,1 51962U 22025G   22097.83334491  .00045902  00000-0  32988-3 0  9992,2 51962  53.2162 354.9169 0001516 144.3917 255.0752 15.73186009  5891,6727.935,91.534,350.82,348.78,0.0
51962.0,STARLINK-3697,PAYLOAD,2022-04-07 22:00:00,15.73191891,0.0001424,53.2159,354.505,143.2705,8.4255,0.00036994,0.000516,0.0,0 STARLINK-3697,1 51962U 22025G   22097.91667824  .00051600  00000-0  36994-3 0  9993,2 51962  53.2159 354.5050 0001424 143.2705   8.4255 15.73191891  3681,6727.918000000002,91.534,350.741,348.825,0.0
51962.0,STARLINK-3697,PAYLOAD,2022-04-08 14:00:03,15.73238353,0.0001675999999999,53.2154,351.2042,144.0126,185.749,-6.4931e-05,-9.738e-05,0.0,0 STARLINK-3697,1 51962U 22025G   22098.58336806 -.00009738  00000-0 -64931-4 0  9990,2 51962  53.2154 351.2042 0001676 144.0126 185.7490 15.73238353  3704,6727.786,91.531,350.778,348.523,0.0
51962.0,STARLINK-3697,PAYLOAD,2022-04-08 22:00:00,15.73219564,0.0001524,53.2158,349.5564,143.0642,275.5061,-0.00077269,-0.00107777,0.0,0 STARLINK-3697,1 51962U 22025G   22098.91667824 -.00107777  00000-0 -77269-3 0  9993,2 51962  53.2158 349.5564 0001524 143.0642 275.5061 15.73219564  6068,6727.839,91.532,350.73,348.67900000000014,0.0
51962.0,STARLINK-3697,PAYLOAD,2022-04-09 14:00:01,15.73090199,0.0001525,53.2157,346.256,147.539,88.792,0.00057781,0.00080874,0.0,0 STARLINK-3697,1 51962U 22025G   22099.58334491  .00080874  00000-0  57781-3 0  9991,2 51962  53.2157 346.2560 0001525 147.5390  88.7920 15.73090199  3704,6728.208000000001,91.54,351.099,349.047,0.0
51962.0,STARLINK-3697,PAYLOAD,2022-04-09 16:00:00,15.73102241,0.0001597,53.2159,345.8437,145.7723,202.7607,0.00058272,0.00081616,0.0,0 STARLINK-3697,1 51962U 22025G   22099.66667824  .00081616  00000-0  58272-3 0  9990,2 51962  53.2159 345.8437 0001597 145.7723 202.7607 15.73102241  6180,6728.174,91.539,351.11300000000006,348.964,0.0
51962.0,STARLINK-3697,PAYLOAD,2022-04-09 22:00:00,15.73178425,0.0001395999999999,53.2155,344.6083,144.1897,181.0104,0.00035503,0.00049454,0.0,0 STARLINK-3697,1 51962U 22025G   22099.91667824  .00049454  00000-0  35503-3 0  9994,2 51962  53.2155 344.6083 0001396 144.1897 181.0104 15.73178425  6225,6727.956999999999,91.534,350.761,348.88199999999995,0.0
51962.0,STARLINK-3697,PAYLOAD,2022-04-10 06:00:02,15.73240664,0.000131,53.2149,342.9589,144.9703,269.2256,0.00049142,0.00069037,0.0,0 STARLINK-3697,1 51962U 22025G   22100.25002315  .00069037  00000-0  49142-3 0  9995,2 51962  53.2149 342.9589 0001310 144.9703 269.2256 15.73240664  6277,6727.779,91.531,350.526,348.76300000000015,0.0
51962.0,STARLINK-3697,PAYLOAD,2022-04-10 14:00:01,15.73288058,0.0001611,53.2151,341.3075,147.7655,355.3532,-0.00034942,-0.00049558,0.0,0 STARLINK-3697,1 51962U 22025G   22100.58334491 -.00049558  00000-0 -34942-3 0  9994,2 51962  53.2151 341.3075 0001611 147.7655 355.3532 15.73288058  6323,6727.644,91.528,350.593,348.425,0.0
51962.0,STARLINK-3697,PAYLOAD,2022-04-10 22:00:00,15.73248815,0.0001543,53.2154,339.6597,139.4321,92.6838,-0.00031019,-0.00044018,0.0,0 STARLINK-3697,1 51962U 22025G   22100.91667824 -.00044018  00000-0 -31019-3 0  9998,2 51962  53.2154 339.6597 0001543 139.4321  92.6838 15.73248815  3714,6727.755999999999,91.53,350.659,348.583,0.0
51962.0,STARLINK-3697,PAYLOAD,2022-04-11 04:00:01,15.73182073,0.0001458,53.2152,338.423,136.2696,72.5942,-0.00015984,-0.00022974,0.0,0 STARLINK-3697,1 51962U 22025G   22101.16668981 -.00022974  00000-0 -15984-3 0  9991,2 51962  53.2152 338.4230 0001458 136.2696  72.5942 15.73182073  6414,6727.946,91.534,350.792,348.83,0.0
51962.0,STARLINK-3697,PAYLOAD,2022-04-11 14:00:01,15.73137153,0.0001863,53.2154,336.3573,134.7619,275.1602,-0.00017477,-0.00025011,0.0,0 STARLINK-3697,1 51962U 22025G   22101.58334491 -.00025011  00000-0 -17477-3 0  9997,2 51962  53.2154 336.3573 0001863 134.7619 275.1602 15.73137153  3703,6728.074000000001,91.537,351.1930000000001,348.686,0.0
51962.0,STARLINK-3697,PAYLOAD,2022-04-11 20:00:01,15.73121708,0.0001818,53.2153,335.1236,131.5531,254.9658,-0.00083132,-0.00115327,0.0,0 STARLINK-3697,1 51962U 22025G   22101.83334491 -.00115327  00000-0 -83132-3 0  9996,2 51962  53.2153 335.1236 0001818 131.5531 254.9658 15.73121708  6521,6728.118,91.538,351.207,348.76,0.0
51962.0,STARLINK-3697,PAYLOAD,2022-04-11 22:00:00,15.73067766,0.0001716,53.215,334.7118,129.9475,8.7841,-0.00016221,-0.00023194,0.0,0 STARLINK-3697,1 51962U 22025G   22101.91667824 -.00023194  00000-0 -16221-3 0  9999,2 51962  53.2150 334.7118 0001716 129.9475   8.7841 15.73067766  3683,6728.272,91.541,351.292,348.983,0.0
51962.0,STARLINK-3697,PAYLOAD,2022-04-12 04:00:00,15.72987392,0.0001563,53.2145,333.4752,133.343,341.9541,0.0020167,0.00289749,0.0,0 STARLINK-3697,1 51962U 22025G   22102.16667824  .00289749  00000-0  20167-2 0  9998,2 51962  53.2145 333.4752 0001563 133.3430 341.9541 15.72987392  6572,6728.501,91.546,351.418,349.315,0.0
51962.0,STARLINK-3697,PAYLOAD,2022-04-12 12:00:00,15.73188883,0.0001716,53.2145,331.8239,143.025,61.0608,0.0010419,0.00148141,0.0,0 STARLINK-3697,1 51962U 22025G   22102.50001157  .00148141  00000-0  10419-2 0  9996,2 51962  53.2145 331.8239 0001716 143.0250  61.0608 15.73188883  6621,6727.927,91.534,350.946,348.63699999999994,0.0
51962.0,STARLINK-3697,PAYLOAD,2022-04-12 14:00:01,15.73240481,0.0001773,53.2146,331.4114,140.971,175.342,0.0005081,0.00071423,0.0,0 STARLINK-3697,1 51962U 22025G   22102.58334491  .00071423  00000-0  50810-3 0  9992,2 51962  53.2146 331.4114 0001773 140.9710 175.3420 15.73240481  3700,6727.78,91.531,350.838,348.452,0.0
51962.0,STARLINK-3697,PAYLOAD,2022-04-12 20:00:01,15.73274108,0.0001749,53.2148,330.1758,134.6314,158.4124,-0.0003572,-0.00050612,0.0,0 STARLINK-3697,1 51962U 22025G   22102.83334491 -.00050612  00000-0 -35720-3 0  9992,2 51962  53.2148 330.1758 0001749 134.6314 158.4124 15.73274108  6681,6727.684,91.529,350.726,348.372,0.0
51962.0,STARLINK-3697,PAYLOAD,2022-04-12 22:00:00,15.73240588,0.0001704,53.2148,329.7639,132.844,272.4602,6.9171e-05,9.114e-05,0.0,0 STARLINK-3697,1 51962U 22025G   22102.91667824  .00009114  00000-0  69171-4 0  9997,2 51962  53.2148 329.7639 0001704 132.8440 272.4602 15.73240588  3695,6727.779,91.531,350.791,348.49800000000016,0.0
51962.0,STARLINK-3697,PAYLOAD,2022-04-13 04:00:00,15.73259904,0.0001533,53.2146,328.5268,132.4756,249.5673,0.00039274,0.00055002,0.0,0 STARLINK-3697,1 51962U 22025G   22103.16667824  .00055002  00000-0  39274-3 0  9992,2 51962  53.2146 328.5268 0001533 132.4756 249.5673 15.73259904  6737,6727.724,91.53,350.621,348.55800000000005,0.0
51962.0,STARLINK-3697,PAYLOAD,2022-04-13 14:00:03,15.73205521,0.0001837,53.2176,326.4446,128.6462,94.8372,-1.1041e-05,-2.17e-05,0.0,0 STARLINK-3697,1 51962U 22025G   22103.58336806 -.00002170  00000-0 -11041-4 0  9994,2 51962  53.2176 326.4446 0001837 128.6462  94.8372 15.73205521  6804,6727.879,91.533,350.98,348.509,0.0
51962.0,STARLINK-3697,PAYLOAD,2022-04-13 22:00:00,15.73287505,0.0001506,53.2143,324.8148,135.1477,177.2408,-0.00037832,-0.00053578,0.0,0 STARLINK-3697,1 51962U 22025G   22103.91667824 -.00053578  00000-0 -37832-3 0  9991,2 51962  53.2143 324.8148 0001506 135.1477 177.2408 15.73287505  6854,6727.646,91.528,350.524,348.49800000000016,0.0
51962.0,STARLINK-3697,PAYLOAD,2022-04-14 06:00:00,15.73244562,0.0001501999999999,53.2137,323.1644,138.6389,262.7261,-0.00082211,-0.0011466,0.0,0 STARLINK-3697,1 51962U 22025G   22104.25001157 -.00114660  00000-0 -82211-3 0  9991,2 51962  53.2137 323.1644 0001502 138.6389 262.7261 15.73244562  6905,6727.768,91.531,350.644,348.62300000000016,0.0
51962.0,STARLINK-3697,PAYLOAD,2022-04-14 14:00:01,15.73141061,0.0001827,53.2139,321.5136,137.7409,352.5365,-0.00019938,-0.00028439,0.0,0 STARLINK-3697,1 51962U 22025G   22104.58334491 -.00028439  00000-0 -19938-3 0  9991,2 51962  53.2139 321.5136 0001827 137.7409 352.5365 15.73141061  3694,6728.063,91.537,351.157,348.699,0.0
51962.0,STARLINK-3697,PAYLOAD,2022-04-14 22:00:00,15.7312986,0.0001644,53.214,319.8663,130.1506,89.0032,0.00048715,0.00068099,0.0,0 STARLINK-3697,1 51962U 22025G   22104.91667824  .00068099  00000-0  48715-3 0  9996,2 51962  53.2140 319.8663 0001644 130.1506  89.0032 15.73129860  7019,6728.095,91.537,351.066,348.85400000000016,0.0
